DELTA 2 R/B             
1 25876U 99041E   19329.91357011 -.00000123  00000-0  21258-4 0  9991
2 25876  51.7651  37.7563 0531423 107.6725 258.2936 14.04376518 39884
HELIOS 1B               
1 25977U 99064A   19329.50551368  .00000042  00000-0  12319-4 0  9991
2 25977  98.2541 112.6016 0000281  14.0185 346.1035 14.82447293 76052
TERRA                   
1 25994U 99068A   19330.42775455  .00000074  00000-0  26411-4 0  9995
2 25994  98.2140  42.5572 0000887  79.6966 280.4335 14.57110898 60607
SL-16 R/B               
1 26070U 00006B   19329.22575729  .00000135  00000-0  93669-4 0  9990
2 26070  71.0032 244.5101 0014339  74.3891 285.8813 14.15463333 23552
TITAN 4B R/B            
1 26474U 00047B   19330.12209507  .00000119  00000-0  21244-4 0  9994
2 26474  67.9938 278.0991 0051501  59.6109 301.0109 14.95885281 48765
ENVISAT                 
1 27386U 02009A   19330.49708198  .00000028  00000-0  22696-4 0  9998
2 27386  98.1421 343.2380 0001324  93.2634  74.3454 14.37964095929301
IDEFIX & ARIANE 42P R/B 
1 27422U 02021B   19329.89995286 -.00000017  00000-0  93608-5 0  9992
2 27422  98.3225 294.7748 0013247 113.1213 247.1367 14.29278641914051
AQUA                    
1 27424U 02022A   19329.91552725  .00000110  00000-0  34474-4 0  9993
2 27424  98.2118 268.4006 0000482 269.8909 182.4548 14.57115725934087
CZ-4B R/B               
1 27432U 02024C   19330.15036909 -.00000025  00000-0  10815-4 0  9992
2 27432  99.0807 323.9627 0051020  33.6348  98.9748 14.14086437904859
MIDORI II (ADEOS-II)    
1 27597U 02056A   19329.78732094  .00000034  00000-0  31301-4 0  9996
2 27597  98.4934 277.8188 0000578 144.1041 216.0179 14.27420913882619
H-2A R/B                
1 27601U 02056E   19330.13214812  .00000039  00000-0  28923-4 0  9997
2 27601  98.2553  11.1151 0072547 165.1446 218.6376 14.31919477885451
CZ-4B R/B               
1 28059U 03049C   19330.49912119  .00000029  00000-0  18671-4 0  9990
2 28059  98.4875 239.6820 0050968  43.0459 317.4705 14.52579952853204
CZ-2C R/B               
1 28222U 04012C   19329.54148041  .00000602  00000-0  40002-4 0  9992
2 28222  97.6484 286.9404 0047728  13.3946 120.5155 15.10217454855066
SL-16 R/B               
1 28353U 04021B   19329.58217001  .00000320  00000-0  19273-3 0  9996
2 28353  71.0015   9.0003 0007172 280.6241  79.4073 14.14223603798188
CZ-4B R/B               
1 28415U 04035C   19329.90259387  .00000043  00000-0  72287-5 0  9997
2 28415  97.6428   8.3851 0050840 331.0177  28.8229 15.06767373832832
CZ-2C R/B               
1 28480U 04046B   19329.93117297  .00000014  00000-0  20139-4 0  9993
2 28480  98.1091  15.4129 0143117 110.3273  61.3000 14.25711145781274
ARIANE 5 R/B            
1 28499U 04049H   19330.12856480  .00000059  00000-0  14787-4 0  9994
2 28499  98.0540  66.3377 0091522 213.0019 201.4241 14.79993865805915
CZ-2D R/B               
1 28738U 05024B   19330.01524471  .00000431  00000-0  28812-4 0  9992
2 28738  97.4012 354.1659 0012437 162.7975 197.3680 15.11913802790539
SUZAKU (ASTRO-EII)      
1 28773U 05025A   19330.49908789  .00001165  00000-0  52685-4 0  9992
2 28773  31.3824 262.5711 0004609 313.1194  46.9068 15.17283879792939
ALOS (DAICHI)           
1 28931U 06002A   19330.42200181  .00000152  00000-0  38547-4 0  9994
2 28931  97.8289 321.3754 0001981  42.9222 317.2146 14.62659681737877
H-2A R/B                
1 28932U 06002B   19329.52971762  .00000130  00000-0  18501-4 0  9998
2 28932  98.3014 303.2912 0087547 272.0763 198.1758 14.92091358750697
AKARI (ASTRO-F)         
1 28939U 06005A   19330.11691408  .00004221  00000-0  11669-3 0  9993
2 28939  98.2062 276.2651 0094676 319.4448  39.9764 15.33287123749591
RESURS-DK 1             
1 29228U 06021A   19329.76686076  .00000099  00000-0  14793-4 0  9998
2 29228  69.9357 349.0566 0002741  11.1402 348.9819 15.02487063742001
GENESIS 1               
1 29252U 06029A   19329.79351718  .00000543  00000-0  36568-4 0  9996
2 29252  64.5194 250.8622 0031514 208.8609 151.0772 15.17931355737115
CZ-4B R/B               
1 29507U 06046C   19330.50288421 -.00000450  00000-0 -29789-4 0  9995
2 29507  97.7536 348.0381 0051777 130.2748 230.3020 15.00471536714836
CZ-2C R/B               
1 31114U 07010B   19330.07551691 -.00000001  00000-0  18064-4 0  9993
2 31114  98.2844 191.3631 0060379 141.7725 218.7757 14.19302094654031
COSMO-SKYMED 1          
1 31598U 07023A   19330.46103542 -.00000140  00000-0 -11099-4 0  9990
2 31598  97.8833 151.5824 0001238  97.0703 263.0687 14.82156394674611
GENESIS 2               
1 31789U 07028A   19329.36732723  .00000506  00000-0  35118-4 0  9995
2 31789  64.5025 293.4429 0053475 268.4069  91.0928 15.17073369684058
COSMOS 2428             
1 31792U 07029A   19330.38217875 -.00000201  00000-0 -83140-4 0  9992
2 31792  70.9308 341.3560 0009547   1.4534 358.6613 14.12415826640056
SL-16 R/B               
1 31793U 07029B   19330.47391848 -.00000019  00000-0  14895-4 0  9993
2 31793  70.9743 314.8443 0002653 260.9491 245.9236 14.14417726640883
KORONAS-FOTON           
1 33504U 09003A   19329.82933359  .00000740  00000-0  37292-4 0  9991
2 33504  82.4438  66.4114 0017587 266.6996  93.2224 15.15509157596494
H-2A R/B                
1 38341U 12025E   19329.80982337  .00000183  00000-0  28951-4 0  9994
2 38341  98.4728 106.9546 0055909 168.5090 191.7413 14.83954913407012
CUSAT 2 & FALCON 9 R/B  
1 39271U 13055G   19330.14802986  .00004091  00000-0  97770-4 0  9998
2 39271  80.9643 126.4390 0596379  63.7875 302.3361 14.46339475321183
SL-4 R/B                
1 39679U 14021B   19330.17106587  .00000481  00000-0  41344-4 0  9996
2 39679  51.6176 335.3062 0172137 318.1427  40.6485 15.06222297308555
ALOS-2                  
1 39766U 14029A   19330.39519353 -.00000003  00000-0  65383-5 0  9995
2 39766  97.9227  64.9263 0001345  88.0118 272.1220 14.79471796297524
SL-27 R/B               
1 40354U 14084B   19330.08896390  .00000860  00000-0  22433-4 0  9994
2 40354  74.7383  90.7865 0037559  21.2123 339.0635 15.39913096277073
YAOGAN 29               
1 41038U 15069A   19330.38870883  .00000024  00000-0  99946-5 0  9996
2 41038  97.9924 313.9365 0001221 115.0199 245.1145 14.80426435216086
ASTRO-H (HITOMI)        
1 41337U 16012A   19330.12275983  .00000240  00000-0  12537-4 0  9999
2 41337  31.0050 225.2524 0012508 212.5993 147.3871 14.98628727206821
SHENZHOU-11 MODULE      
1 41868U 16061G   19329.91248822  .00029035  00000-0  11954-3 0  9993
2 41868  42.7930 332.5924 0007927 113.8404 321.1712 15.85297631173496
HXMT (HUIYAN)           
1 42758U 17034A   19330.56319166  .00000263  00000-0  30169-4 0  9998
2 42758  43.0186  74.4064 0010414 191.0556 292.0649 15.08705194135070
SAOCOM 1A               
1 43641U 18076A   19330.46919134  .00000034  00000-0  10884-4 0  9995
2 43641  97.8856 154.5101 0001206  79.1025 281.0337 14.82153679 61381
CREW DRAGON DEMO-1 DEB  
1 44064U 19011B   19329.82390358  .00014373  00000-0  17646-3 0  9997
2 44064  51.6389 265.7145 0004082  23.5024 336.6207 15.60567811 40913
